KUIPER-00079            
1 64826U 25151L   25205.14077089  .00025884  00000+0  74188-3 0  9997
2 64826  51.8775 249.6351 0006352 158.8977 201.2273 15.35714512  2409
KUIPER-00080            
1 64827U 25151M   25205.16668981  .00023762  00000+0  68874-3 0  9995
2 64827  51.8781 249.5290 0005486 170.4057 324.8919 15.35416993  1202
KUIPER-00082            
1 64828U 25151N   25205.16668981  .00023327  00000+0  67403-3 0  9990
2 64828  51.8775 249.5180 0005908 166.2768 332.2049 15.35523637  1206
KUIPER-00083            
1 64829U 25151P   25205.16668981  .00023957  00000+0  70132-3 0  9993
2 64829  51.8770 249.5341 0005760 173.0888 316.8591 15.35098438  2393
KUIPER-00084            
1 64830U 25151Q   25205.16668981  .00023269  00000+0  68372-3 0  9994
2 64830  51.8778 249.5522 0006254 186.3830 296.6262 15.34995540  1205
KUIPER-00085            
1 64831U 25151R   25205.16668981  .00023363  00000+0  67227-3 0  9998
2 64831  51.8777 249.5114 0006334 161.5523 341.0679 15.35651486  1201
KUIPER-00086            
1 64832U 25151S   25205.16668981  .00022620  00000+0  66480-3 0  9994
2 64832  51.8771 249.5452 0006203 184.8096 300.5568 15.35006371  1203
KUIPER-00087            
1 64833U 25151T   25205.16668981  .00024335  00000+0  70575-3 0  9990
2 64833  51.8780 249.5221 0005834 163.6346 334.8310 15.35382672  1206
