<?xml version="1.0" encoding="UTF-8"?>
<ndm xmlns:xsi="http://www.w3.org/2001/XMLSchema-instance" xsi:noNamespaceSchemaLocation="https://sanaregistry.org/r/ndmxml_unqualified/ndmxml-2.0.0-master-2.0.xsd">
<omm id="CCSDS_OMM_VERS" version="2.0">
<header><CREATION_DATE/><ORIGINATOR/></header><body><segment><metadata><OBJECT_NAME>KUIPER-00079</OBJECT_NAME><OBJECT_ID>2025-151L</OBJECT_ID><CENTER_NAME>EARTH</CENTER_NAME><REF_FRAME>TEME</REF_FRAME><TIME_SYSTEM>UTC</TIME_SYSTEM><MEAN_ELEMENT_THEORY>SGP4</MEAN_ELEMENT_THEORY></metadata><data><meanElements><EPOCH>2025-07-24T03:22:42.604896</EPOCH><MEAN_MOTION>15.35714512</MEAN_MOTION><ECCENTRICITY>.0006352</ECCENTRICITY><INCLINATION>51.8775</INCLINATION><RA_OF_ASC_NODE>249.6351</RA_OF_ASC_NODE><ARG_OF_PERICENTER>158.8977</ARG_OF_PERICENTER><MEAN_ANOMALY>201.2273</MEAN_ANOMALY></meanElements><tleParameters><EPHEMERIS_TYPE>0</EPHEMERIS_TYPE><CLASSIFICATION_TYPE>U</CLASSIFICATION_TYPE><NORAD_CAT_ID>64826</NORAD_CAT_ID><ELEMENT_SET_NO>999</ELEMENT_SET_NO><REV_AT_EPOCH>240</REV_AT_EPOCH><BSTAR>.74188E-3</BSTAR><MEAN_MOTION_DOT>.25884E-3</MEAN_MOTION_DOT><MEAN_MOTION_DDOT>0</MEAN_MOTION_DDOT></tleParameters></data></segment></body></omm>
<omm id="CCSDS_OMM_VERS" version="2.0">
<header><CREATION_DATE/><ORIGINATOR/></header><body><segment><metadata><OBJECT_NAME>KUIPER-00080</OBJECT_NAME><OBJECT_ID>2025-151M</OBJECT_ID><CENTER_NAME>EARTH</CENTER_NAME><REF_FRAME>TEME</REF_FRAME><TIME_SYSTEM>UTC</TIME_SYSTEM><MEAN_ELEMENT_THEORY>SGP4</MEAN_ELEMENT_THEORY></metadata><data><meanElements><EPOCH>2025-07-24T04:00:01.999584</EPOCH><MEAN_MOTION>15.35416993</MEAN_MOTION><ECCENTRICITY>.0005486</ECCENTRICITY><INCLINATION>51.8781</INCLINATION><RA_OF_ASC_NODE>249.5290</RA_OF_ASC_NODE><ARG_OF_PERICENTER>170.4057</ARG_OF_PERICENTER><MEAN_ANOMALY>324.8919</MEAN_ANOMALY></meanElements><tleParameters><EPHEMERIS_TYPE>0</EPHEMERIS_TYPE><CLASSIFICATION_TYPE>U</CLASSIFICATION_TYPE><NORAD_CAT_ID>64827</NORAD_CAT_ID><ELEMENT_SET_NO>999</ELEMENT_SET_NO><REV_AT_EPOCH>120</REV_AT_EPOCH><BSTAR>.68874E-3</BSTAR><MEAN_MOTION_DOT>.23762E-3</MEAN_MOTION_DOT><MEAN_MOTION_DDOT>0</MEAN_MOTION_DDOT></tleParameters></data></segment></body></omm>
<omm id="CCSDS_OMM_VERS" version="2.0">
<header><CREATION_DATE/><ORIGINATOR/></header><body><segment><metadata><OBJECT_NAME>KUIPER-00082</OBJECT_NAME><OBJECT_ID>2025-151N</OBJECT_ID><CENTER_NAME>EARTH</CENTER_NAME><REF_FRAME>TEME</REF_FRAME><TIME_SYSTEM>UTC</TIME_SYSTEM><MEAN_ELEMENT_THEORY>SGP4</MEAN_ELEMENT_THEORY></metadata><data><meanElements><EPOCH>2025-07-24T04:00:01.999584</EPOCH><MEAN_MOTION>15.35523637</MEAN_MOTION><ECCENTRICITY>.0005908</ECCENTRICITY><INCLINATION>51.8775</INCLINATION><RA_OF_ASC_NODE>249.5180</RA_OF_ASC_NODE><ARG_OF_PERICENTER>166.2768</ARG_OF_PERICENTER><MEAN_ANOMALY>332.2049</MEAN_ANOMALY></meanElements><tleParameters><EPHEMERIS_TYPE>0</EPHEMERIS_TYPE><CLASSIFICATION_TYPE>U</CLASSIFICATION_TYPE><NORAD_CAT_ID>64828</NORAD_CAT_ID><ELEMENT_SET_NO>999</ELEMENT_SET_NO><REV_AT_EPOCH>120</REV_AT_EPOCH><BSTAR>.67403E-3</BSTAR><MEAN_MOTION_DOT>.23327E-3</MEAN_MOTION_DOT><MEAN_MOTION_DDOT>0</MEAN_MOTION_DDOT></tleParameters></data></segment></body></omm>
<omm id="CCSDS_OMM_VERS" version="2.0">
<header><CREATION_DATE/><ORIGINATOR/></header><body><segment><metadata><OBJECT_NAME>KUIPER-00083</OBJECT_NAME><OBJECT_ID>2025-151P</OBJECT_ID><CENTER_NAME>EARTH</CENTER_NAME><REF_FRAME>TEME</REF_FRAME><TIME_SYSTEM>UTC</TIME_SYSTEM><MEAN_ELEMENT_THEORY>SGP4</MEAN_ELEMENT_THEORY></metadata><data><meanElements><EPOCH>2025-07-24T04:00:01.999584</EPOCH><MEAN_MOTION>15.35098438</MEAN_MOTION><ECCENTRICITY>.000576</ECCENTRICITY><INCLINATION>51.8770</INCLINATION><RA_OF_ASC_NODE>249.5341</RA_OF_ASC_NODE><ARG_OF_PERICENTER>173.0888</ARG_OF_PERICENTER><MEAN_ANOMALY>316.8591</MEAN_ANOMALY></meanElements><tleParameters><EPHEMERIS_TYPE>0</EPHEMERIS_TYPE><CLASSIFICATION_TYPE>U</CLASSIFICATION_TYPE><NORAD_CAT_ID>64829</NORAD_CAT_ID><ELEMENT_SET_NO>999</ELEMENT_SET_NO><REV_AT_EPOCH>239</REV_AT_EPOCH><BSTAR>.70132E-3</BSTAR><MEAN_MOTION_DOT>.23957E-3</MEAN_MOTION_DOT><MEAN_MOTION_DDOT>0</MEAN_MOTION_DDOT></tleParameters></data></segment></body></omm>
<omm id="CCSDS_OMM_VERS" version="2.0">
<header><CREATION_DATE/><ORIGINATOR/></header><body><segment><metadata><OBJECT_NAME>KUIPER-00084</OBJECT_NAME><OBJECT_ID>2025-151Q</OBJECT_ID><CENTER_NAME>EARTH</CENTER_NAME><REF_FRAME>TEME</REF_FRAME><TIME_SYSTEM>UTC</TIME_SYSTEM><MEAN_ELEMENT_THEORY>SGP4</MEAN_ELEMENT_THEORY></metadata><data><meanElements><EPOCH>2025-07-24T04:00:01.999584</EPOCH><MEAN_MOTION>15.34995540</MEAN_MOTION><ECCENTRICITY>.0006254</ECCENTRICITY><INCLINATION>51.8778</INCLINATION><RA_OF_ASC_NODE>249.5522</RA_OF_ASC_NODE><ARG_OF_PERICENTER>186.3830</ARG_OF_PERICENTER><MEAN_ANOMALY>296.6262</MEAN_ANOMALY></meanElements><tleParameters><EPHEMERIS_TYPE>0</EPHEMERIS_TYPE><CLASSIFICATION_TYPE>U</CLASSIFICATION_TYPE><NORAD_CAT_ID>64830</NORAD_CAT_ID><ELEMENT_SET_NO>999</ELEMENT_SET_NO><REV_AT_EPOCH>120</REV_AT_EPOCH><BSTAR>.68372E-3</BSTAR><MEAN_MOTION_DOT>.23269E-3</MEAN_MOTION_DOT><MEAN_MOTION_DDOT>0</MEAN_MOTION_DDOT></tleParameters></data></segment></body></omm>
<omm id="CCSDS_OMM_VERS" version="2.0">
<header><CREATION_DATE/><ORIGINATOR/></header><body><segment><metadata><OBJECT_NAME>KUIPER-00085</OBJECT_NAME><OBJECT_ID>2025-151R</OBJECT_ID><CENTER_NAME>EARTH</CENTER_NAME><REF_FRAME>TEME</REF_FRAME><TIME_SYSTEM>UTC</TIME_SYSTEM><MEAN_ELEMENT_THEORY>SGP4</MEAN_ELEMENT_THEORY></metadata><data><meanElements><EPOCH>2025-07-24T04:00:01.999584</EPOCH><MEAN_MOTION>15.35651486</MEAN_MOTION><ECCENTRICITY>.0006334</ECCENTRICITY><INCLINATION>51.8777</INCLINATION><RA_OF_ASC_NODE>249.5114</RA_OF_ASC_NODE><ARG_OF_PERICENTER>161.5523</ARG_OF_PERICENTER><MEAN_ANOMALY>341.0679</MEAN_ANOMALY></meanElements><tleParameters><EPHEMERIS_TYPE>0</EPHEMERIS_TYPE><CLASSIFICATION_TYPE>U</CLASSIFICATION_TYPE><NORAD_CAT_ID>64831</NORAD_CAT_ID><ELEMENT_SET_NO>999</ELEMENT_SET_NO><REV_AT_EPOCH>120</REV_AT_EPOCH><BSTAR>.67227E-3</BSTAR><MEAN_MOTION_DOT>.23363E-3</MEAN_MOTION_DOT><MEAN_MOTION_DDOT>0</MEAN_MOTION_DDOT></tleParameters></data></segment></body></omm>
<omm id="CCSDS_OMM_VERS" version="2.0">
<header><CREATION_DATE/><ORIGINATOR/></header><body><segment><metadata><OBJECT_NAME>KUIPER-00086</OBJECT_NAME><OBJECT_ID>2025-151S</OBJECT_ID><CENTER_NAME>EARTH</CENTER_NAME><REF_FRAME>TEME</REF_FRAME><TIME_SYSTEM>UTC</TIME_SYSTEM><MEAN_ELEMENT_THEORY>SGP4</MEAN_ELEMENT_THEORY></metadata><data><meanElements><EPOCH>2025-07-24T04:00:01.999584</EPOCH><MEAN_MOTION>15.35006371</MEAN_MOTION><ECCENTRICITY>.0006203</ECCENTRICITY><INCLINATION>51.8771</INCLINATION><RA_OF_ASC_NODE>249.5452</RA_OF_ASC_NODE><ARG_OF_PERICENTER>184.8096</ARG_OF_PERICENTER><MEAN_ANOMALY>300.5568</MEAN_ANOMALY></meanElements><tleParameters><EPHEMERIS_TYPE>0</EPHEMERIS_TYPE><CLASSIFICATION_TYPE>U</CLASSIFICATION_TYPE><NORAD_CAT_ID>64832</NORAD_CAT_ID><ELEMENT_SET_NO>999</ELEMENT_SET_NO><REV_AT_EPOCH>120</REV_AT_EPOCH><BSTAR>.6648E-3</BSTAR><MEAN_MOTION_DOT>.2262E-3</MEAN_MOTION_DOT><MEAN_MOTION_DDOT>0</MEAN_MOTION_DDOT></tleParameters></data></segment></body></omm>
<omm id="CCSDS_OMM_VERS" version="2.0">
<header><CREATION_DATE/><ORIGINATOR/></header><body><segment><metadata><OBJECT_NAME>KUIPER-00087</OBJECT_NAME><OBJECT_ID>2025-151T</OBJECT_ID><CENTER_NAME>EARTH</CENTER_NAME><REF_FRAME>TEME</REF_FRAME><TIME_SYSTEM>UTC</TIME_SYSTEM><MEAN_ELEMENT_THEORY>SGP4</MEAN_ELEMENT_THEORY></metadata><data><meanElements><EPOCH>2025-07-24T04:00:01.999584</EPOCH><MEAN_MOTION>15.35382672</MEAN_MOTION><ECCENTRICITY>.0005834</ECCENTRICITY><INCLINATION>51.8780</INCLINATION><RA_OF_ASC_NODE>249.5221</RA_OF_ASC_NODE><ARG_OF_PERICENTER>163.6346</ARG_OF_PERICENTER><MEAN_ANOMALY>334.8310</MEAN_ANOMALY></meanElements><tleParameters><EPHEMERIS_TYPE>0</EPHEMERIS_TYPE><CLASSIFICATION_TYPE>U</CLASSIFICATION_TYPE><NORAD_CAT_ID>64833</NORAD_CAT_ID><ELEMENT_SET_NO>999</ELEMENT_SET_NO><REV_AT_EPOCH>120</REV_AT_EPOCH><BSTAR>.70575E-3</BSTAR><MEAN_MOTION_DOT>.24335E-3</MEAN_MOTION_DOT><MEAN_MOTION_DDOT>0</MEAN_MOTION_DDOT></tleParameters></data></segment></body></omm>

</ndm>
